{
  "type": "FeatureCollection",
  "features": [
    {
      "type": "Feature",
      "properties": {
        "norad_id": 44624,
        "name": "EUTELSAT 5 WEST B (EGNOS/PRN 121)",
        "group": "gnss",
        "lat": -0.0547299141324568,
        "lon": -150.42154832894647,
        "alt_km": 35777.56128508647,
        "timestamp": "2025-12-13T08:49:15.929533+00:00",
        "meta_object_name": "EUTELSAT 5 WEST B (EGNOS/PRN 121)",
        "meta_object_id": "2019-067A",
        "meta_epoch": "2025-12-12T23:43:43.133952",
        "meta_mean_motion": 1.00271982,
        "meta_eccentricity": 0.00033233,
        "meta_inclination": 0.0617,
        "meta_ra_of_asc_node": 349.9107,
        "meta_arg_of_pericenter": 272.7245,
        "meta_mean_anomaly": 170.221,
        "meta_ephemeris_type": 0,
        "meta_classification_type": "U",
        "meta_norad_cat_id": 44624,
        "meta_element_set_no": 999,
        "meta_rev_at_epoch": 2257,
        "meta_bstar": 0,
        "meta_mean_motion_dot": -2.9e-07,
        "meta_mean_motion_ddot": 0,
        "tle_line1": "1 44624U 19067A   25346.98869368 -.00000029  00000+0  00000+0 0  9990",
        "tle_line2": "2 44624   0.0617 349.9107 0003323 272.7245 170.2210  1.00271982 22578"
      },
      "geometry": {
        "type": "Point",
        "coordinates": [
          -150.42154832894647,
          -0.0547299141324568
        ]
      }
    },
    {
      "type": "Feature",
      "properties": {
        "norad_id": 44709,
        "name": "BEIDOU-3 IGSO-3 (C40)",
        "group": "gnss",
        "lat": 35.22414287241082,
        "lon": -47.677405964894696,
        "alt_km": 35948.036681691425,
        "timestamp": "2025-12-13T08:49:15.929545+00:00",
        "meta_object_name": "BEIDOU-3 IGSO-3 (C40)",
        "meta_object_id": "2019-073A",
        "meta_epoch": "2025-11-20T07:11:22.740000",
        "meta_mean_motion": 1.00250097,
        "meta_eccentricity": 0.0044538,
        "meta_inclination": 55.163,
        "meta_ra_of_asc_node": 283.159,
        "meta_arg_of_pericenter": 191.5856,
        "meta_mean_anomaly": 168.2409,
        "meta_ephemeris_type": 0,
        "meta_classification_type": "U",
        "meta_norad_cat_id": 44709,
        "meta_element_set_no": 999,
        "meta_rev_at_epoch": 2236,
        "meta_bstar": 0,
        "meta_mean_motion_dot": -2.06e-06,
        "meta_mean_motion_ddot": 0,
        "tle_line1": "1 44709U 19073A   25324.29956875 -.00000206  00000+0  00000+0 0  9998",
        "tle_line2": "2 44709  55.1630 283.1590 0044538 191.5856 168.2409  1.00250097 22360"
      },
      "geometry": {
        "type": "Point",
        "coordinates": [
          -47.677405964894696,
          35.22414287241082
        ]
      }
    },
    {
      "type": "Feature",
      "properties": {
        "norad_id": 44793,
        "name": "BEIDOU-3 M22 (C44)",
        "group": "gnss",
        "lat": 37.009392424414976,
        "lon": -20.596144683467784,
        "alt_km": 21509.072076439526,
        "timestamp": "2025-12-13T08:49:15.929560+00:00",
        "meta_object_name": "BEIDOU-3 M22 (C44)",
        "meta_object_id": "2019-078A",
        "meta_epoch": "2025-12-12T05:19:54.790752",
        "meta_mean_motion": 1.86231761,
        "meta_eccentricity": 0.00056767,
        "meta_inclination": 54.1087,
        "meta_ra_of_asc_node": 306.4039,
        "meta_arg_of_pericenter": 23.3376,
        "meta_mean_anomaly": 336.6791,
        "meta_ephemeris_type": 0,
        "meta_classification_type": "U",
        "meta_norad_cat_id": 44793,
        "meta_element_set_no": 999,
        "meta_rev_at_epoch": 4116,
        "meta_bstar": 0,
        "meta_mean_motion_dot": -9.3e-07,
        "meta_mean_motion_ddot": 0,
        "tle_line1": "1 44793U 19078A   25346.22216193 -.00000093  00000+0  00000+0 0  9999",
        "tle_line2": "2 44793  54.1087 306.4039 0005676  23.3376 336.6791  1.86231761 41169"
      },
      "geometry": {
        "type": "Point",
        "coordinates": [
          -20.596144683467784,
          37.009392424414976
        ]
      }
    },
    {
      "type": "Feature",
      "properties": {
        "norad_id": 44794,
        "name": "BEIDOU-3 M21 (C43)",
        "group": "gnss",
        "lat": -34.51981972383142,
        "lon": -83.5712444218947,
        "alt_km": 21526.387987545146,
        "timestamp": "2025-12-13T08:49:15.929571+00:00",
        "meta_object_name": "BEIDOU-3 M21 (C43)",
        "meta_object_id": "2019-078B",
        "meta_epoch": "2025-12-12T21:31:22.420992",
        "meta_mean_motion": 1.86227428,
        "meta_eccentricity": 0.00038849,
        "meta_inclination": 54.0814,
        "meta_ra_of_asc_node": 306.3454,
        "meta_arg_of_pericenter": 10.3666,
        "meta_mean_anomaly": 349.6317,
        "meta_ephemeris_type": 0,
        "meta_classification_type": "U",
        "meta_norad_cat_id": 44794,
        "meta_element_set_no": 999,
        "meta_rev_at_epoch": 4118,
        "meta_bstar": 0,
        "meta_mean_motion_dot": -9.6e-07,
        "meta_mean_motion_ddot": 0,
        "tle_line1": "1 44794U 19078B   25346.89678728 -.00000096  00000+0  00000+0 0  9992",
        "tle_line2": "2 44794  54.0814 306.3454 0003884  10.3666 349.6317  1.86227428 41189"
      },
      "geometry": {
        "type": "Point",
        "coordinates": [
          -83.5712444218947,
          -34.51981972383142
        ]
      }
    },
    {
      "type": "Feature",
      "properties": {
        "norad_id": 44850,
        "name": "COSMOS 2544 (759)",
        "group": "gnss",
        "lat": 46.65277846033893,
        "lon": -128.95905292722352,
        "alt_km": 19143.185048063755,
        "timestamp": "2025-12-13T08:49:15.929588+00:00",
        "meta_object_name": "COSMOS 2544 (759)",
        "meta_object_id": "2019-088A",
        "meta_epoch": "2025-12-11T19:03:21.616416",
        "meta_mean_motion": 2.13101808,
        "meta_eccentricity": 0.00136914,
        "meta_inclination": 65.4596,
        "meta_ra_of_asc_node": 79.99,
        "meta_arg_of_pericenter": 249.2614,
        "meta_mean_anomaly": 110.6076,
        "meta_ephemeris_type": 0,
        "meta_classification_type": "U",
        "meta_norad_cat_id": 44850,
        "meta_element_set_no": 999,
        "meta_rev_at_epoch": 4672,
        "meta_bstar": 0,
        "meta_mean_motion_dot": -3.2e-07,
        "meta_mean_motion_ddot": 0,
        "tle_line1": "1 44850U 19088A   25345.79400019 -.00000032  00000+0  00000+0 0  9990",
        "tle_line2": "2 44850  65.4596  79.9900 0013691 249.2614 110.6076  2.13101808 46724"
      },
      "geometry": {
        "type": "Point",
        "coordinates": [
          -128.95905292722352,
          46.65277846033893
        ]
      }
    },
    {
      "type": "Feature",
      "properties": {
        "norad_id": 44864,
        "name": "BEIDOU-3 M19 (C41)",
        "group": "gnss",
        "lat": 23.612422012470496,
        "lon": -127.92914808605077,
        "alt_km": 21559.7614170778,
        "timestamp": "2025-12-13T08:49:15.929646+00:00",
        "meta_object_name": "BEIDOU-3 M19 (C41)",
        "meta_object_id": "2019-090A",
        "meta_epoch": "2025-12-10T23:47:39.658272",
        "meta_mean_motion": 1.86231263,
        "meta_eccentricity": 0.0017877,
        "meta_inclination": 56.392,
        "meta_ra_of_asc_node": 69.0187,
        "meta_arg_of_pericenter": 285.2046,
        "meta_mean_anomaly": 73.1126,
        "meta_ephemeris_type": 0,
        "meta_classification_type": "U",
        "meta_norad_cat_id": 44864,
        "meta_element_set_no": 999,
        "meta_rev_at_epoch": 4072,
        "meta_bstar": 0,
        "meta_mean_motion_dot": -6e-07,
        "meta_mean_motion_ddot": 0,
        "tle_line1": "1 44864U 19090A   25344.99143123 -.00000060  00000+0  00000+0 0  9990",
        "tle_line2": "2 44864  56.3920  69.0187 0017877 285.2046  73.1126  1.86231263 40726"
      },
      "geometry": {
        "type": "Point",
        "coordinates": [
          -127.92914808605077,
          23.612422012470496
        ]
      }
    },
    {
      "type": "Feature",
      "properties": {
        "norad_id": 44865,
        "name": "BEIDOU-3 M20 (C42)",
        "group": "gnss",
        "lat": -46.69447317455688,
        "lon": -66.2286506274692,
        "alt_km": 21510.822702318274,
        "timestamp": "2025-12-13T08:49:15.929661+00:00",
        "meta_object_name": "BEIDOU-3 M20 (C42)",
        "meta_object_id": "2019-090B",
        "meta_epoch": "2025-12-10T20:36:05.507712",
        "meta_mean_motion": 1.86231317,
        "meta_eccentricity": 0.0014897,
        "meta_inclination": 56.3937,
        "meta_ra_of_asc_node": 69.0576,
        "meta_arg_of_pericenter": 298.003,
        "meta_mean_anomaly": 60.7372,
        "meta_ephemeris_type": 0,
        "meta_classification_type": "U",
        "meta_norad_cat_id": 44865,
        "meta_element_set_no": 999,
        "meta_rev_at_epoch": 4070,
        "meta_bstar": 0,
        "meta_mean_motion_dot": -5.8e-07,
        "meta_mean_motion_ddot": 0,
        "tle_line1": "1 44865U 19090B   25344.85839708 -.00000058  00000+0  00000+0 0  9994",
        "tle_line2": "2 44865  56.3937  69.0576 0014897 298.0030  60.7372  1.86231317 40704"
      },
      "geometry": {
        "type": "Point",
        "coordinates": [
          -66.2286506274692,
          -46.69447317455688
        ]
      }
    }
  ]
}